NORAD_CAT_ID,OBJECT_NAME,OBJECT_TYPE,EPOCH,MEAN_MOTION,ECCENTRICITY,INCLINATION,RA_OF_ASC_NODE,ARG_OF_PERICENTER,MEAN_ANOMALY,BSTAR,MEAN_MOTION_DOT,MEAN_MOTION_DDOT,TLE_LINE0,TLE_LINE1,TLE_LINE2,SEMIMAJOR_AXIS,PERIOD,APOGEE,PERIGEE,DECAYED
52679.0,STARLINK-4031,PAYLOAD,2024-04-30 21:54:16,15.0885119,0.0001118,53.2168,306.7774,84.4866,275.6253,9.0146e-05,1.148e-05,0.0,0 STARLINK-4031,1 52679U 22053Z   24121.91269401  .00001148  00000-0  90146-4 0  9991,2 52679  53.2168 306.7774 0001118  84.4866 275.6253 15.08851190108813,6917.846,95.437,540.485,538.938,0.0
52679.0,STARLINK-4031,PAYLOAD,2024-05-01 12:12:45,15.08825611,0.0001517,53.219,304.102,103.8113,256.3048,0.00042806,6.529e-05,0.0,0 STARLINK-4031,1 52679U 22053Z   24122.50886282  .00006529  00000-0  42806-3 0  9996,2 52679  53.2190 304.1020 0001517 103.8113 256.3048 15.08825611108512,6917.924,95.438,540.839,538.74,0.0
52679.0,STARLINK-4031,PAYLOAD,2024-05-01 21:45:03,15.08851428,0.0001553,53.2187,302.3181,103.4616,256.655,0.00014879,2.082e-05,0.0,0 STARLINK-4031,1 52679U 22053Z   24122.90628979  .00002082  00000-0  14879-3 0  9996,2 52679  53.2187 302.3181 0001553 103.4616 256.6550 15.08851428108965,6917.845,95.437,540.785,538.636,0.0
52679.0,STARLINK-4031,PAYLOAD,2024-05-02 12:03:32,15.08841521,0.0001297,53.2146,299.6427,91.3734,268.7407,-2.8461e-05,-7.41e-06,0.0,0 STARLINK-4031,1 52679U 22053Z   24123.50245931 -.00000741  00000-0 -28461-4 0  9991,2 52679  53.2146 299.6427 0001297  91.3734 268.7407 15.08841521108667,6917.876,95.437,540.638,538.843,0.0
52679.0,STARLINK-4031,PAYLOAD,2024-05-02 15:14:18,15.08837315,0.0001241,53.2134,299.0474,92.0127,268.1007,-3.2311e-06,-3.39e-06,0.0,0 STARLINK-4031,1 52679U 22053Z   24123.63494010 -.00000339  00000-0 -32311-5 0  9992,2 52679  53.2134 299.0474 0001241  92.0127 268.1007 15.08837315109075,6917.889,95.438,540.612,538.895,0.0
52679.0,STARLINK-4031,PAYLOAD,2024-05-03 11:54:18,15.08848178,0.0001498,53.2174,295.1836,90.927,269.1894,5.7435e-05,6.26e-06,0.0,0 STARLINK-4031,1 52679U 22053Z   24124.49605060  .00000626  00000-0  57435-4 0  9996,2 52679  53.2174 295.1836 0001498  90.9270 269.1894 15.08848178108813,6917.855,95.437,540.757,538.684,0.0
52679.0,STARLINK-4031,PAYLOAD,2024-05-03 15:05:04,15.08854372,0.0001704,53.2163,294.5862,93.0777,267.041,3.0942e-05,2.05e-06,0.0,0 STARLINK-4031,1 52679U 22053Z   24124.62852686  .00000205  00000-0  30942-4 0  9996,2 52679  53.2163 294.5862 0001704  93.0777 267.0410 15.08854372109229,6917.836,95.437,540.88,538.523,0.0
52679.0,STARLINK-4031,PAYLOAD,2024-05-03 18:15:50,15.08856211,0.0001532,53.2174,293.9939,90.6609,269.4558,0.00010229,1.341e-05,0.0,0 STARLINK-4031,1 52679U 22053Z   24124.76100358  .00001341  00000-0  10229-3 0  9990,2 52679  53.2174 293.9939 0001532  90.6609 269.4558 15.08856211108856,6917.831,95.437,540.756,538.636,0.0
52679.0,STARLINK-4031,PAYLOAD,2024-05-04 03:48:10,15.08838811,0.0001411,53.2172,292.2078,87.4706,272.6447,8.9844e-05,1.142e-05,0.0,0 STARLINK-4031,1 52679U 22053Z   24125.15845468  .00001142  00000-0  89844-4 0  9991,2 52679  53.2172 292.2078 0001411  87.4706 272.6447 15.08838811108914,6917.884,95.438,540.725,538.773,0.0
52679.0,STARLINK-4031,PAYLOAD,2024-05-04 18:06:39,15.08832562,0.0001399,53.2173,289.5348,99.7319,260.3831,-8.079e-06,-4.16e-06,0.0,0 STARLINK-4031,1 52679U 22053Z   24125.75462041 -.00000416  00000-0 -80790-5 0  9996,2 52679  53.2173 289.5348 0001399  99.7319 260.3831 15.08832562109004,6917.903,95.438,540.736,538.8,0.0
52679.0,STARLINK-4031,PAYLOAD,2024-05-05 14:46:39,15.0884079,0.0001361,53.2172,285.6688,103.0874,257.027,0.00013429,1.85e-05,0.0,0 STARLINK-4031,1 52679U 22053Z   24126.61573928  .00001850  00000-0  13429-3 0  9993,2 52679  53.2172 285.6688 0001361 103.0874 257.0270 15.08840790109520,6917.878,95.438,540.684,538.801,0.0
52679.0,STARLINK-4031,PAYLOAD,2024-05-05 21:08:12,15.08850298,0.0001424,53.2174,284.4799,105.3355,254.7794,0.00056134,8.66e-05,0.0,0 STARLINK-4031,1 52679U 22053Z   24126.88069871  .00008660  00000-0  56134-3 0  9995,2 52679  53.2174 284.4799 0001424 105.3355 254.7794 15.08850298109171,6917.849,95.437,540.699,538.729,0.0
52679.0,STARLINK-4031,PAYLOAD,2024-05-06 09:51:17,15.08851647,0.0001405,53.2171,282.1009,90.778,269.3373,0.00057288,8.844e-05,0.0,0 STARLINK-4031,1 52679U 22053Z   24127.41062005  .00008844  00000-0  57288-3 0  9992,2 52679  53.2171 282.1009 0001405  90.7780 269.3373 15.08851647109258,6917.845,95.437,540.682,538.738,0.0
52679.0,STARLINK-4031,PAYLOAD,2024-05-06 14:37:26,15.088482,0.0001294,53.216,281.2064,88.1374,271.9767,0.0003802,5.769e-05,0.0,0 STARLINK-4031,1 52679U 22053Z   24127.60933949  .00005769  00000-0  38020-3 0  9993,2 52679  53.2160 281.2064 0001294  88.1374 271.9767 15.08848200109676,6917.855,95.437,540.615,538.825,0.0
52679.0,STARLINK-4031,PAYLOAD,2024-05-06 17:48:13,15.08852959,0.0001365,53.2164,280.6119,87.29,272.8248,0.00046301,7.091e-05,0.0,0 STARLINK-4031,1 52679U 22053Z   24127.74181827  .00007091  00000-0  46301-3 0  9999,2 52679  53.2164 280.6119 0001365  87.2900 272.8248 15.08852959109690,6917.841,95.437,540.65,538.761,0.0
52679.0,STARLINK-4031,PAYLOAD,2024-05-07 14:28:14,15.08844282,0.0001396,53.218,276.7456,87.8786,272.2366,0.00017286,2.465e-05,0.0,0 STARLINK-4031,1 52679U 22053Z   24128.60294012  .00002465  00000-0  17286-3 0  9996,2 52679  53.2180 276.7456 0001396  87.8786 272.2366 15.08844282109820,6917.867,95.437,540.698,538.767,0.0
52679.0,STARLINK-4031,PAYLOAD,2024-05-07 17:39:00,15.08845576,0.0001246,53.2167,276.1493,81.1056,279.0077,0.00019014,2.74e-05,0.0,0 STARLINK-4031,1 52679U 22053Z   24128.73541923  .00002740  00000-0  19014-3 0  9993,2 52679  53.2167 276.1493 0001246  81.1056 279.0077 15.08845576109451,6917.863,95.437,540.59,538.866,0.0
52679.0,STARLINK-4031,PAYLOAD,2024-05-08 03:11:19,15.08838677,0.0001276,53.2167,274.3656,80.6748,279.4389,7.8572e-05,9.63e-06,0.0,0 STARLINK-4031,1 52679U 22053Z   24129.13286213  .00000963  00000-0  78572-4 0  9996,2 52679  53.2167 274.3656 0001276  80.6748 279.4389 15.08838677109518,6917.884,95.438,540.632,538.867,0.0
52679.0,STARLINK-4031,PAYLOAD,2024-05-08 14:19:01,15.08837062,0.0001413,53.2164,272.2871,74.7314,285.3835,6.8878e-05,8.08e-06,0.0,0 STARLINK-4031,1 52679U 22053Z   24129.59654585  .00000808  00000-0  68878-4 0  9993,2 52679  53.2164 272.2871 0001413  74.7314 285.3835 15.08837062109976,6917.889,95.438,540.732,538.777,0.0
52679.0,STARLINK-4031,PAYLOAD,2024-05-08 15:54:24,15.08839277,0.000143,53.2162,271.9908,66.301,293.8132,6.1146e-05,6.85e-06,0.0,0 STARLINK-4031,1 52679U 22053Z   24129.66278590  .00000685  00000-0  61146-4 0  9993,2 52679  53.2162 271.9908 0001430  66.3010 293.8132 15.08839277109985,6917.883,95.438,540.737,538.758,0.0
52679.0,STARLINK-4031,PAYLOAD,2024-05-09 12:34:25,15.08844722,0.0001337,53.2163,268.1235,76.0925,284.0216,0.00016856,2.396e-05,0.0,0 STARLINK-4031,1 52679U 22053Z   24130.52390463  .00002396  00000-0  16856-3 0  9992,2 52679  53.2163 268.1235 0001337  76.0925 284.0216 15.08844722109724,6917.866,95.437,540.656,538.806,0.0
52679.0,STARLINK-4031,PAYLOAD,2024-05-09 14:09:48,15.08846493,0.0001343,53.2166,267.8265,75.983,284.1311,0.00019765,2.86e-05,0.0,0 STARLINK-4031,1 52679U 22053Z   24130.59014384  .00002860  00000-0  19765-3 0  9992,2 52679  53.2166 267.8265 0001343  75.9830 284.1311 15.08846493110126,6917.861,95.437,540.655,538.796,0.0
52679.0,STARLINK-4031,PAYLOAD,2024-05-09 15:45:11,15.08850055,0.0001282,53.217,267.5285,78.5986,281.515,0.00021393,3.119e-05,0.0,0 STARLINK-4031,1 52679U 22053Z   24130.65638168  .00003119  00000-0  21393-3 0  9999,2 52679  53.2170 267.5285 0001282  78.5986 281.5150 15.08850055110135,6917.85,95.437,540.602,538.828,0.0
52679.0,STARLINK-4031,PAYLOAD,2024-05-10 12:25:12,15.08836834,0.0001362,53.2167,263.6632,83.083,277.0317,0.00013382,1.842e-05,0.0,0 STARLINK-4031,1 52679U 22053Z   24131.51751058  .00001842  00000-0  13382-3 0  9999,2 52679  53.2167 263.6632 0001362  83.0830 277.0317 15.08836834109875,6917.89,95.438,540.697,538.813,0.0
52679.0,STARLINK-4031,PAYLOAD,2024-05-10 14:00:36,15.08835302,0.0001337,53.2172,263.3659,82.7625,277.3519,0.00010676,1.411e-05,0.0,0 STARLINK-4031,1 52679U 22053Z   24131.58375114  .00001411  00000-0  10676-3 0  9996,2 52679  53.2172 263.3659 0001337  82.7625 277.3519 15.08835302110279,6917.895,95.438,540.685,538.835,0.0
52679.0,STARLINK-4031,PAYLOAD,2024-05-10 15:35:58,15.08845714,0.000119,53.2169,263.0675,89.5702,270.5426,0.00021051,3.065e-05,0.0,0 STARLINK-4031,1 52679U 22053Z   24131.64998606  .00003065  00000-0  21051-3 0  9996,2 52679  53.2169 263.0675 0001190  89.5702 270.5426 15.08845714109894,6917.863,95.437,540.551,538.905,0.0
52679.0,STARLINK-4031,PAYLOAD,2024-05-11 12:15:56,15.08889753,0.0001648,53.2174,259.2027,69.1951,290.9217,0.0007901,0.00012326,0.0,0 STARLINK-4031,1 52679U 22053Z   24132.51107507  .00012326  00000-0  79010-3 0  9993,2 52679  53.2174 259.2027 0001648  69.1951 290.9217 15.08889753110028,6917.728,95.434,540.733,538.453,0.0
52679.0,STARLINK-4031,PAYLOAD,2024-05-11 15:26:41,15.08962756,0.0001333,53.216,258.6102,91.1311,268.9834,0.0025618,0.00040857,0.0,0 STARLINK-4031,1 52679U 22053Z   24132.64353814  .00040857  00000-0  25618-2 0  9995,2 52679  53.2160 258.6102 0001333  91.1311 268.9834 15.08962756110043,6917.505,95.43,540.292,538.448,0.0
52679.0,STARLINK-4031,PAYLOAD,2024-05-12 00:59:01,15.08859074,0.0001958,53.217,256.8249,79.9644,280.1569,-0.00039566,-6.583e-05,0.0,0 STARLINK-4031,1 52679U 22053Z   24133.04099272 -.00006583  00000-0 -39566-3 0  9993,2 52679  53.2170 256.8249 0001958  79.9644 280.1569 15.08859074110108,6917.822,95.436,541.042,538.333,0.0
52679.0,STARLINK-4031,PAYLOAD,2024-05-12 12:06:44,15.08801212,0.0001266,53.2169,254.7402,79.0235,281.0899,-0.0018978,-0.00030332,0.0,0 STARLINK-4031,1 52679U 22053Z   24133.50468396 -.00030332  00000-0 -18978-2 0  9993,2 52679  53.2169 254.7402 0001266  79.0235 281.0899 15.08801212110177,6917.999,95.44,540.74,538.988,0.0
